ONEWEB-0158             
1 48054U 21025N   25282.50402705 -.00000310  00000+0 -88316-3 0  9997
2 48054  87.9056  10.0179 0001545 107.9410 252.1888 13.13469180220726
ONEWEB-0157             
1 48055U 21025P   25282.68177865  .00000123  00000+0  30081-3 0  9999
2 48055  87.9052   9.9900 0002254 101.7628 258.3754 13.13469439220685
ONEWEB-0162             
1 48056U 21025Q   25282.50558812 -.00000269  00000+0 -77224-3 0  9999
2 48056  87.9055  10.0252 0001868 100.0531 260.0809 13.13469898220632
ONEWEB-0155             
1 48057U 21025R   25282.51249116 -.00000180  00000+0 -52822-3 0  9994
2 48057  87.9053  10.0304 0001938 105.9000 254.2343 13.13469672220775
ONEWEB-0149             
1 48058U 21025S   25282.53449947  .00000240  00000+0  62200-3 0  9997
2 48058  87.9051  10.0201 0001919  94.4127 265.7221 13.13469514220587
ONEWEB-0148             
1 48059U 21025T   25282.49724898 -.00000154  00000+0 -45692-3 0  9996
2 48059  87.9047  10.0513 0002175  85.9480 274.1898 13.13470578220701
ONEWEB-0160             
1 48060U 21025U   25282.51417925 -.00000122  00000+0 -36959-3 0  9992
2 48060  87.9045  10.0451 0001031 104.9303 255.1940 13.13470129220651
ONEWEB-0163             
1 48061U 21025V   25282.49895941  .00000014  00000+0  41849-5 0  9992
2 48061  87.9055  10.0303 0002088 103.0267 257.1095 13.13464756220776
